NORAD_CAT_ID,OBJECT_NAME,OBJECT_TYPE,EPOCH,MEAN_MOTION,ECCENTRICITY,INCLINATION,RA_OF_ASC_NODE,ARG_OF_PERICENTER,MEAN_ANOMALY,BSTAR,MEAN_MOTION_DOT,MEAN_MOTION_DDOT,TLE_LINE0,TLE_LINE1,TLE_LINE2,SEMIMAJOR_AXIS,PERIOD,APOGEE,PERIGEE,DECAYED
56463.0,STARLINK-6051,PAYLOAD,2024-08-20 03:56:25,14.98322897,0.0001983,70.0036,132.96,257.415,102.6787,0.00020639,2.37e-05,0.0,0 STARLINK-6051,1 56463U 23064R   24233.16417960  .00002370  00000-0  20639-3 0  9992,2 56463  70.0036 132.9600 0001983 257.4150 102.6787 14.98322897 70740,6950.215,96.107,573.458,570.702,0.0
56463.0,STARLINK-6051,PAYLOAD,2024-08-20 19:57:44,14.98337874,0.0002774,70.0015,131.2765,256.1153,103.9697,0.00012012,1.341e-05,0.0,0 STARLINK-6051,1 56463U 23064R   24233.83176917  .00001341  00000-0  12012-3 0  9993,2 56463  70.0015 131.2765 0002774 256.1153 103.9697 14.98337874 70845,6950.169,96.106,573.962,570.106,0.0
56463.0,STARLINK-6051,PAYLOAD,2024-08-21 03:58:24,14.98341249,0.0002695,70.0016,130.4347,255.9402,104.1457,0.00020335,2.335e-05,0.0,0 STARLINK-6051,1 56463U 23064R   24234.16556683  .00002335  00000-0  20335-3 0  9993,2 56463  70.0016 130.4347 0002695 255.9402 104.1457 14.98341249 70533,6950.158,96.106,573.896,570.15,0.0
56463.0,STARLINK-6051,PAYLOAD,2024-08-21 19:59:46,14.98329514,0.0002747,70.0016,128.7509,245.8047,114.2825,3.7741e-05,3.57e-06,0.0,0 STARLINK-6051,1 56463U 23064R   24234.83317309  .00000357  00000-0  37741-4 0  9999,2 56463  70.0016 128.7509 0002747 245.8047 114.2825 14.98329514 70996,6950.194,96.107,573.969,570.15,0.0
